#aV2006  5  4  0  0   .00000000      96 DD+AD WGS84 FIT  NGA
## 1373 345600.00000000   900.00000000 53859  .0000000000000
+   29     1  2  3  4  5  6  7  8  9 10 11 13 14 15 16 17 18
+         19 20 21 22 23 24 25 26 27 28 29 30  0  0  0  0  0
+          0  0  0  0  0  0  0  0  0  0  0  0  0  0  0  0  0
+          0  0  0  0  0  0  0  0  0  0  0  0  0  0  0  0  0
+          0  0  0  0  0  0  0  0  0  0  0  0  0  0  0  0  0
++         0  0  0  0  0  0  0  0  0  0  0  0  0  0  0  0  0
++         0  0  0  0  0  0  0  0  0  0  0  0  0  0  0  0  0
++         0  0  0  0  0  0  0  0  0  0  0  0  0  0  0  0  0
++         0  0  0  0  0  0  0  0  0  0  0  0  0  0  0  0  0
++         0  0  0  0  0  0  0  0  0  0  0  0  0  0  0  0  0
%c cc cc ccc ccc cccc cccc cccc cccc ccccc ccccc ccccc ccccc
%c cc cc ccc ccc cccc cccc cccc cccc ccccc ccccc ccccc ccccc
%f  0.0000000  0.000000000  0.00000000000  0.000000000000000
%f  0.0000000  0.000000000  0.00000000000  0.000000000000000
%i    0    0    0    0      0      0      0      0         0
%i    0    0    0    0      0      0      0      0         0
/*      NGA, ST. LOUIS,MO.                                  
/*   EPHEMERIS COMPUTED FROM  3 DAYS OF DATA                
/* CCCCCCCCCCCCCCCCCCCCCCCCCCCCCCCCCCCCCCCCCCCCCCCCCCCCCCCCC
/* CCCCCCCCCCCCCCCCCCCCCCCCCCCCCCCCCCCCCCCCCCCCCCCCCCCCCCCCC
*  2006  5  4 17 45   .00000000                                                 
P  1 -14886.863441   -743.007223 -21793.467704     50.872022                    
V  1  -5798.409182 -27455.422703   4810.774837       .022545                    
P  2  21672.240127  -8920.223181 -12568.184575     -5.029122                    
V  2  -9221.031370  12903.681781 -25797.989463       .025168                    
P  3 -14853.164131   5602.230056  21128.553312     95.893709                    
V  3  -9502.831376 -25650.615532    425.250393       .031330                    
P  4  18653.342669    987.500318 -19045.920292    221.833804                    
V  4 -16447.148935  17564.325953 -14880.273069       .095622                    
P  5   6436.056791 -14725.888842 -21325.425955    -55.435895                    
V  5  26180.344163   5437.681121   4353.442882       .579824                    
P  6  -6100.384340 -25711.931485  -2036.285254    507.983052                    
V  6   4379.678006   1647.566192 -31055.966242       .192537                    
P  7 -16723.886751 -13472.370640  15881.813337    534.390830                    
V  7  -3809.202849 -19464.261714 -21107.021652       .031256                    
P  8  12258.519794   8845.857536  21723.911650    -64.681970                    
V  8 -20488.472965  18875.352551   3459.007595      -.012638                    
P  9  14030.972141 -21588.877841  -6404.211395     18.840738                    
V  9   7211.278241  -3522.099372  30529.510508       .015576                    
P 10  22934.673545  -2645.905244  13307.996798     82.888327                    
V 10  15729.714826   6452.728456 -25335.047379       .006762                    
P 11 -11339.977512  23118.848689  -6035.454587    324.916184                    
V 11  -8450.394218   3310.512719  29128.039349       .025047                    
P 13   5417.490365  26013.907779  -1123.396731     59.327690                    
V 13  -2024.566847   -872.016495 -32349.968567       .028289                    
P 14 -14483.903626 -16161.034711 -15279.880156    -14.683612                    
V 14  -3336.420994 -19217.052416  23339.241756       .007845                    
P 15 -12221.200328  -9451.405617  21472.863358    607.312096                    
V 15  20901.154411 -18068.929846   3519.441986       .060454                    
P 16 -25289.002292  -1111.485078   8306.822080     40.748786                    
V 16  -9334.282902  -5205.152742 -29323.636287       .023501                    
P 17  14711.895976  17078.532320 -14132.862795     89.414247                    
V 17   2530.477470  17834.508846  24111.481853       .035256                    
P 18 -12284.054025 -16517.151324  17047.057691   -233.794496                    
V 18  20823.869424   4976.818070  19643.189382      -.016789                    
P 19  -9282.548549  17441.512076  17835.477907    -12.387192                    
V 19  -6036.714015 -21696.436137  18226.524938       .017636                    
P 20  -4743.629190  14596.408694 -21771.489741    -27.460010                    
V 20 -26503.147149  -7074.893062   1068.105016       .006534                    
P 21  -4378.203320 -16188.335610  20536.276709     26.279582                    
V 21  20084.533052 -16780.150768  -9494.390368       .027637                    
P 22 -22687.721378 -12285.386805   6475.885925     92.255217                    
V 22   8511.446849   -172.062461  30193.080502       .038509                    
P 23  -2546.459627  23373.791869 -12288.110438    142.335493                    
V 23  -6124.856250 -14416.309611 -26505.819567      -.009178                    
P 24   9439.261410  11822.289516 -21592.975490      3.472836                    
V 24 -20992.227387  18505.406927   1198.043971       .028987                    
P 25 -19626.865745   4745.466941 -16921.713583      9.898423                    
V 25  12801.972622 -18279.049489 -19385.696332      -.068453                    
P 26  10008.599698 -13909.615968  19721.804335   -105.308453                    
V 26   7160.742667  25038.901039  14330.876938      -.111290                    
P 27   4529.381543  16718.936343  20649.214881     47.231366                    
V 27 -17433.540438  17925.348503 -11344.855971       .016798                    
P 28  20896.261255  13475.943788  10098.102789     28.112283                    
V 28 -12419.957396  -1344.712062  27962.593276      -.008810                    
P 29  11868.084762 -10490.152159  21505.555023    598.613569                    
V 29   7638.323885  25630.407917   8647.207173       .071262                    
P 30  -5884.355386 -16475.386384 -20295.295576    215.827597                    
V 30  24760.104230   4713.920229 -11042.240336       .336927                    
EOF
